TRANSPORTER-15 OBJECT R 
1 66681U 25276R   26170.70942701  .00013145  00000+0  54380-3 0  9991
2 66681  97.4108 244.6024 0004793  24.2880 335.8582 15.24074704 30840
ION SCV-022             
1 66682U 25276S   26170.78361835  .00000373  00000+0  36723-4 0  9994
2 66682  97.5290 241.3689 0004975 150.6357 209.5146 14.97540632 30468
6GSTARLAB               
1 66683U 25276T   26170.75940005  .00002344  00000+0  11719-3 0  9991
2 66683  97.4243 244.1022 0005549   2.5550 357.5711 15.18405714 30799
MICE-1                  
1 66684U 25276U   26170.94562318  .00002902  00000+0  14107-3 0  9994
2 66684  97.4268 244.5279 0005018   2.1352 357.9903 15.19206533 30833
AE5RA                   
1 66685U 25276V   26170.70973773  .00008720  00000+0  37467-3 0  9998
2 66685  97.4212 244.6940 0004333  21.5068 338.6350 15.22901619 30830
LEMUR-2-STAS-GORBUK     
1 66686U 25276W   26170.76594931  .00004501  00000+0  21576-3 0  9997
2 66686  97.4242 244.2537 0004851   6.8934 353.2367 15.19403010 30801
LEO EXPRESS 3           
1 66687U 25276X   26170.94243664  .00009261  00000+0  41905-3 0  9998
2 66687  97.4257 244.5745 0005811 129.6435 230.5314 15.21108076 30849
WISDOM A                
1 66688U 25276Y   26170.95946125  .00004201  00000+0  20189-3 0  9992
2 66688  97.4215 244.3887 0004642   7.9194 352.2113 15.19358646 30835
AC1-003                 
1 66689U 25276Z   26170.75823907  .00001683  00000+0  85509-4 0  9992
2 66689  97.4207 244.0056 0003277  33.6336 326.5106 15.18234107 30794
TRANSPORTER-15 OBJECT AA
1 66690U 25276AA  26170.64958309  .00003297  00000+0  16047-3 0  9990
2 66690  97.4179 243.9397 0004648  10.8620 349.2714 15.19062351 30783
TRANSPORTER-15 OBJECT AB
1 66691U 25276AB  26170.77712390  .00006748  00000+0  30760-3 0  9995
2 66691  97.4197 244.4340 0004214   9.1618 350.9694 15.20965635 30825
NUSAT-52                
1 66692U 25276AC  26170.64946174  .00003973  00000+0  18914-3 0  9995
2 66692  97.4203 244.1582 0003341  34.0071 326.1378 15.19724339 30791
AE5RB                   
1 66693U 25276AD  26170.77585832  .00012509  00000+0  53682-3 0  9996
2 66693  97.4166 244.6383 0003556  24.7193 335.4213 15.22847069 30840
YAM-9                   
1 66694U 25276AE  26170.77065609  .00003957  00000+0  21569-3 0  9998
2 66694  97.4207 243.2542 0007257 308.0710  51.9867 15.14939363 30748
IRIDE FM1               
1 66695U 25276AF  26170.77635371  .00004195  00000+0  19295-3 0  9996
2 66695  97.4192 244.5563 0000958  60.2770 299.8561 15.20879152 30833
IRIDE FM2               
1 66696U 25276AG  26170.73673357  .00006224  00000+0  28803-3 0  9999
2 66696  97.4180 244.2724 0003530  25.7352 334.4058 15.20481599 30817
IRIDE FM3               
1 66697U 25276AH  26170.71933117  .00005674  00000+0  25996-3 0  9999
2 66697  97.4173 244.4447 0000732  17.4913 342.6347 15.20870090 30827
IRIDE FM4               
1 66698U 25276AJ  26170.78742308  .00004493  00000+0  21311-3 0  9992
2 66698  97.4180 244.2091 0003883  21.3884 338.7512 15.19773966 30811
IRIDE FM5               
1 66699U 25276AK  26170.75851524  .00006296  00000+0  29367-3 0  9993
2 66699  97.4193 244.2834 0003634  25.1565 334.9846 15.20201715 30811
IRIDE FM6               
1 66700U 25276AL  26170.76185066  .00006383  00000+0  28987-3 0  9992
2 66700  97.4213 244.6317 0000936  29.6272 330.5017 15.21125743 30834
IRIDE FM7               
1 66701U 25276AM  26170.75078964  .00004337  00000+0  20331-3 0  9992
2 66701  97.4214 244.3415 0004336  12.5380 347.5962 15.20203471 30810
IRIDE FM8               
1 66702U 25276AN  26170.75565976  .00004395  00000+0  20643-3 0  9997
2 66702  97.4190 244.2720 0004310  35.6193 324.5329 15.20130298 30810
PELICAN-6               
1 66703U 25276AP  26170.94345927  .00005911  00000+0  20445-3 0  9996
2 66703  97.3902 246.0617 0002505  82.2799 277.8726 15.30273011 30958
FLOCK 4H-1              
1 66704U 25276AQ  26170.94438907  .00004556  00000+0  21115-3 0  9997
2 66704  97.4175 244.5866 0000949 357.1479   2.9750 15.20573287 30850
FLOCK 4H-2              
1 66705U 25276AR  26170.72517682  .00004392  00000+0  20213-3 0  9998
2 66705  97.4172 244.4107 0000741  43.9544 316.1751 15.20840697 30828
FLOCK 4H-3              
1 66706U 25276AS  26170.76635383  .00004727  00000+0  22284-3 0  9994
2 66706  97.4238 244.3864 0003782  15.7592 344.3760 15.19963407 30814
FLOCK 4H-4              
1 66707U 25276AT  26170.73294910  .00004811  00000+0  22819-3 0  9997
2 66707  97.4222 244.2346 0004433  13.5525 346.5828 15.19737906 30809
FLOCK 4H-5              
1 66708U 25276AU  26170.67431659  .00004481  00000+0  20744-3 0  9992
2 66708  97.4172 244.3403 0001029  74.5359 285.5990 15.20626393 30811
FLOCK 4H-6              
1 66709U 25276AV  26170.71522921  .00004352  00000+0  20334-3 0  9993
2 66709  97.4223 244.4188 0002306 351.2529   8.8666 15.20318429 30817
FLOCK 4H-7              
1 66710U 25276AW  26170.75897885  .00005220  00000+0  24493-3 0  9998
2 66710  97.4181 244.2421 0002958  50.7106 309.4391 15.20082078 30818
