OBJECT_NAME,OBJECT_ID,EPOCH,MEAN_MOTION,ECCENTRICITY,INCLINATION,RA_OF_ASC_NODE,ARG_OF_PERICENTER,MEAN_ANOMALY,EPHEMERIS_TYPE,CLASSIFICATION_TYPE,NORAD_CAT_ID,ELEMENT_SET_NO,REV_AT_EPOCH,BSTAR,MEAN_MOTION_DOT,MEAN_MOTION_DDOT
TRANSPORTER-15 OBJECT R,2025-276R,2026-06-19T17:01:34.493664,15.24074704,.0004793,97.4108,244.6024,24.2880,335.8582,0,U,66681,999,3084,.54379583E-3,.13145E-3,0
ION SCV-022,2025-276S,2026-06-19T18:48:24.625440,14.97540632,.0004975,97.5290,241.3689,150.6357,209.5146,0,U,66682,999,3046,.36722922E-4,.373E-5,0
6GSTARLAB,2025-276T,2026-06-19T18:13:32.164320,15.18405714,.00055493,97.4243,244.1022,2.5550,357.5711,0,U,66683,999,3079,.11719295E-3,.2344E-4,0
MICE-1,2025-276U,2026-06-19T22:41:41.842752,15.19206533,.00050184,97.4268,244.5279,2.1352,357.9903,0,U,66684,999,3083,.14106999E-3,.2902E-4,0
AE5RA,2025-276V,2026-06-19T17:02:01.339872,15.22901619,.0004333,97.4212,244.6940,21.5068,338.6350,0,U,66685,999,3083,.37467164E-3,.872E-4,0
LEMUR-2-STAS-GORBUK,2025-276W,2026-06-19T18:22:58.020384,15.19403010,.0004851,97.4242,244.2537,6.8934,353.2367,0,U,66686,999,3080,.21576279E-3,.4501E-4,0
LEO EXPRESS 3,2025-276X,2026-06-19T22:37:06.525696,15.21108076,.00058116,97.4257,244.5745,129.6435,230.5314,0,U,66687,999,3084,.41905223E-3,.9261E-4,0
WISDOM A,2025-276Y,2026-06-19T23:01:37.452000,15.19358646,.00046426,97.4215,244.3887,7.9194,352.2113,0,U,66688,999,3083,.20189172E-3,.4201E-4,0
AC1-003,2025-276Z,2026-06-19T18:11:51.855648,15.18234107,.00032778,97.4207,244.0056,33.6336,326.5106,0,U,66689,999,3079,.85508784E-4,.1683E-4,0
TRANSPORTER-15 OBJECT AA,2025-276AA,2026-06-19T15:35:23.978976,15.19062351,.00046481,97.4179,243.9397,10.8620,349.2714,0,U,66690,999,3078,.16047193E-3,.3297E-4,0
TRANSPORTER-15 OBJECT AB,2025-276AB,2026-06-19T18:39:03.504960,15.20965635,.00042146,97.4197,244.4340,9.1618,350.9694,0,U,66691,999,3082,.30759899E-3,.6748E-4,0
NUSAT-52,2025-276AC,2026-06-19T15:35:13.494336,15.19724339,.00033414,97.4203,244.1582,34.0071,326.1378,0,U,66692,999,3079,.18913543E-3,.3973E-4,0
AE5RB,2025-276AD,2026-06-19T18:37:14.158848,15.22847069,.0003556,97.4166,244.6383,24.7193,335.4213,0,U,66693,999,3084,.53681752E-3,.12509E-3,0
YAM-9,2025-276AE,2026-06-19T18:29:44.686176,15.14939363,.00072577,97.4207,243.2542,308.0710,51.9867,0,U,66694,999,3074,.21568668E-3,.3957E-4,0
IRIDE FM1,2025-276AF,2026-06-19T18:37:56.960544,15.20879152,.00009586,97.4192,244.5563,60.2770,299.8561,0,U,66695,999,3083,.19295388E-3,.4195E-4,0
IRIDE FM2,2025-276AG,2026-06-19T17:40:53.780448,15.20481599,.00035309,97.4180,244.2724,25.7352,334.4058,0,U,66696,999,3081,.2880318E-3,.6224E-4,0
IRIDE FM3,2025-276AH,2026-06-19T17:15:50.213088,15.20870090,.00007322,97.4173,244.4447,17.4913,342.6347,0,U,66697,999,3082,.25996456E-3,.5674E-4,0
IRIDE FM4,2025-276AJ,2026-06-19T18:53:53.354112,15.19773966,.00038833,97.4180,244.2091,21.3884,338.7512,0,U,66698,999,3081,.21310796E-3,.4493E-4,0
IRIDE FM5,2025-276AK,2026-06-19T18:12:15.716736,15.20201715,.00036343,97.4193,244.2834,25.1565,334.9846,0,U,66699,999,3081,.29367115E-3,.6296E-4,0
IRIDE FM6,2025-276AL,2026-06-19T18:17:03.897024,15.21125743,.0000936,97.4213,244.6317,29.6272,330.5017,0,U,66700,999,3083,.28987047E-3,.6383E-4,0
IRIDE FM7,2025-276AM,2026-06-19T18:01:08.224896,15.20203471,.00043368,97.4214,244.3415,12.5380,347.5962,0,U,66701,999,3081,.20331012E-3,.4337E-4,0
IRIDE FM8,2025-276AN,2026-06-19T18:08:09.003264,15.20130298,.00043101,97.4190,244.2720,35.6193,324.5329,0,U,66702,999,3081,.20643024E-3,.4395E-4,0
PELICAN-6,2025-276AP,2026-06-19T22:38:34.880928,15.30273011,.00025057,97.3902,246.0617,82.2799,277.8726,0,U,66703,999,3095,.20444841E-3,.5911E-4,0
FLOCK 4H-1,2025-276AQ,2026-06-19T22:39:55.215648,15.20573287,.00009491,97.4175,244.5866,357.1479,2.9750,0,U,66704,999,3085,.21115201E-3,.4556E-4,0
FLOCK 4H-2,2025-276AR,2026-06-19T17:24:15.277248,15.20840697,.00007417,97.4172,244.4107,43.9544,316.1751,0,U,66705,999,3082,.20213296E-3,.4392E-4,0
FLOCK 4H-3,2025-276AS,2026-06-19T18:23:32.970912,15.19963407,.00037822,97.4238,244.3864,15.7592,344.3760,0,U,66706,999,3081,.22283954E-3,.4727E-4,0
FLOCK 4H-4,2025-276AT,2026-06-19T17:35:26.802240,15.19737906,.00044339,97.4222,244.2346,13.5525,346.5828,0,U,66707,999,3080,.22819361E-3,.4811E-4,0
FLOCK 4H-5,2025-276AU,2026-06-19T16:11:00.953376,15.20626393,.00010292,97.4172,244.3403,74.5359,285.5990,0,U,66708,999,3081,.2074419E-3,.4481E-4,0
FLOCK 4H-6,2025-276AV,2026-06-19T17:09:55.803744,15.20318429,.00023063,97.4223,244.4188,351.2529,8.8666,0,U,66709,999,3081,.20334052E-3,.4352E-4,0
FLOCK 4H-7,2025-276AW,2026-06-19T18:12:55.772640,15.20082078,.00029587,97.4181,244.2421,50.7106,309.4391,0,U,66710,999,3081,.24492824E-3,.522E-4,0
